NORAD_CAT_ID,OBJECT_NAME,OBJECT_TYPE,EPOCH,MEAN_MOTION,ECCENTRICITY,INCLINATION,RA_OF_ASC_NODE,ARG_OF_PERICENTER,MEAN_ANOMALY,BSTAR,MEAN_MOTION_DOT,MEAN_MOTION_DDOT,TLE_LINE0,TLE_LINE1,TLE_LINE2,SEMIMAJOR_AXIS,PERIOD,APOGEE,PERIGEE,DECAYED
50816.0,STARLINK-3342,PAYLOAD,2024-04-02 10:28:21,15.08838866,0.0001341,53.2167,99.6131,90.657,269.4576,-1.5694e-05,-5.38e-06,0.0,0 STARLINK-3342,1 50816U 22001P   24093.43636195 -.00000538  00000-0 -15694-4 0  9997,2 50816  53.2167  99.6131 0001341  90.6570 269.4576 15.08838866125067,6917.884,95.438,540.677,538.821,0.0
50816.0,STARLINK-3342,PAYLOAD,2024-04-02 16:49:54,15.08838022,0.0001326,53.216,98.4245,86.0586,274.0557,-6.4951e-05,-1.321e-05,0.0,0 STARLINK-3342,1 50816U 22001P   24093.70132421 -.00001321  00000-0 -64951-4 0  9991,2 50816  53.2160  98.4245 0001326  86.0586 274.0557 15.08838022123829,6917.886,95.438,540.669,538.834,0.0
50816.0,STARLINK-3342,PAYLOAD,2024-04-03 07:08:22,15.08832273,0.0001361,53.2158,95.7477,91.6501,268.4647,6.9342e-05,8.16e-06,0.0,0 STARLINK-3342,1 50816U 22001P   24094.29748550  .00000816  00000-0  69342-4 0  9997,2 50816  53.2158  95.7477 0001361  91.6501 268.4647 15.08832273123910,6917.904,95.438,540.711,538.827,0.0
50816.0,STARLINK-3342,PAYLOAD,2024-04-04 05:23:45,15.08846367,0.0001472,53.2173,91.5832,85.7496,274.3665,0.00012834,1.755e-05,0.0,0 STARLINK-3342,1 50816U 22001P   24095.22483286  .00001755  00000-0  12834-3 0  9999,2 50816  53.2173  91.5832 0001472  85.7496 274.3665 15.08846367125339,6917.861,95.437,540.744,538.708,0.0
50816.0,STARLINK-3342,PAYLOAD,2024-04-04 06:59:08,15.08849867,0.0001437,53.2171,91.2865,87.3355,272.7802,0.0001555,2.188e-05,0.0,0 STARLINK-3342,1 50816U 22001P   24095.29106952  .00002188  00000-0  15550-3 0  9997,2 50816  53.2171  91.2865 0001437  87.3355 272.7802 15.08849867124065,6917.85,95.437,540.709,538.721,0.0
50816.0,STARLINK-3342,PAYLOAD,2024-04-04 16:31:27,15.08842638,0.0001469,53.2177,89.5018,81.2345,278.8814,8.8527e-05,1.121e-05,0.0,0 STARLINK-3342,1 50816U 22001P   24095.68851492  .00001121  00000-0  88527-4 0  9997,2 50816  53.2177  89.5018 0001469  81.2345 278.8814 15.08842638124124,6917.872,95.437,540.754,538.721,0.0
50816.0,STARLINK-3342,PAYLOAD,2024-04-05 03:39:11,15.08825705,0.0001568,53.2181,87.4225,92.3919,267.7253,-7.143e-05,-1.424e-05,0.0,0 STARLINK-3342,1 50816U 22001P   24096.15221327 -.00001424  00000-0 -71430-4 0  9991,2 50816  53.2181  87.4225 0001568  92.3919 267.7253 15.08825705125475,6917.924,95.438,540.874,538.704,0.0
50816.0,STARLINK-3342,PAYLOAD,2024-04-05 08:25:20,15.08828744,0.0001485,53.2174,86.5289,86.7996,273.3166,-8.8157e-05,-1.69e-05,0.0,0 STARLINK-3342,1 50816U 22001P   24096.35093322 -.00001690  00000-0 -88157-4 0  9994,2 50816  53.2174  86.5289 0001485  86.7996 273.3166 15.08828744124221,6917.915,95.438,540.807,538.752,0.0
50816.0,STARLINK-3342,PAYLOAD,2024-04-05 16:22:15,15.08835289,0.000158,53.2184,85.0417,87.2822,272.8351,-6.7056e-05,-1.355e-05,0.0,0 STARLINK-3342,1 50816U 22001P   24096.68212947 -.00001355  00000-0 -67056-4 0  9999,2 50816  53.2184  85.0417 0001580  87.2822 272.8351 15.08835289125558,6917.895,95.438,540.853,538.667,0.0
50816.0,STARLINK-3342,PAYLOAD,2024-04-06 05:05:20,15.08846377,0.0001389,53.2173,82.6632,90.7942,269.321,-4.6386e-05,-1.026e-05,0.0,0 STARLINK-3342,1 50816U 22001P   24097.21204154 -.00001026  00000-0 -46386-4 0  9998,2 50816  53.2173  82.6632 0001389  90.7942 269.3210 15.08846377125631,6917.861,95.437,540.687,538.765,0.0
50816.0,STARLINK-3342,PAYLOAD,2024-04-06 08:16:06,15.08848817,0.0001439,53.2175,82.0684,90.2544,269.8613,-2.23e-05,-6.43e-06,0.0,0 STARLINK-3342,1 50816U 22001P   24097.34451916 -.00000643  00000-0 -22300-4 0  9996,2 50816  53.2175  82.0684 0001439  90.2544 269.8613 15.08848817124376,6917.853,95.437,540.714,538.723,0.0
50816.0,STARLINK-3342,PAYLOAD,2024-04-06 22:34:35,15.08832054,0.0001509,53.2176,79.3926,85.6546,274.4618,0.00016955,2.411e-05,0.0,0 STARLINK-3342,1 50816U 22001P   24097.94068457  .00002411  00000-0  16955-3 0  9997,2 50816  53.2176  79.3926 0001509  85.6546 274.4618 15.08832054124466,6917.905,95.438,540.814,538.726,0.0
50816.0,STARLINK-3342,PAYLOAD,2024-04-07 08:06:53,15.08838929,0.0001527,53.2177,77.6082,87.0223,273.0944,0.00016533,2.344e-05,0.0,0 STARLINK-3342,1 50816U 22001P   24098.33812369  .00002344  00000-0  16533-3 0  9997,2 50816  53.2177  77.6082 0001527  87.0223 273.0944 15.08838929124520,6917.884,95.438,540.805,538.692,0.0
50816.0,STARLINK-3342,PAYLOAD,2024-04-07 16:03:49,15.08835245,0.0001307,53.2163,76.1199,91.7633,268.3509,9.6697e-05,1.251e-05,0.0,0 STARLINK-3342,1 50816U 22001P   24098.66932853  .00001251  00000-0  96697-4 0  9990,2 50816  53.2163  76.1199 0001307  91.7633 268.3509 15.08835245124578,6917.895,95.438,540.664,538.856,0.0
50816.0,STARLINK-3342,PAYLOAD,2024-04-08 04:46:55,15.08834462,0.0001352,53.2169,73.7408,91.1695,268.9452,2.088e-05,4.4e-07,0.0,0 STARLINK-3342,1 50816U 22001P   24099.19925257  .00000044  00000-0  20880-4 0  9999,2 50816  53.2169  73.7408 0001352  91.1695 268.9452 15.08834462125936,6917.897,95.438,540.698,538.827,0.0
50816.0,STARLINK-3342,PAYLOAD,2024-04-08 22:16:09,15.08840738,0.0001523,53.2188,70.469,95.6604,264.4562,7.7178e-05,9.41e-06,0.0,0 STARLINK-3342,1 50816U 22001P   24099.92788775  .00000941  00000-0  77178-4 0  9990,2 50816  53.2188  70.4690 0001523  95.6604 264.4562 15.08840738124769,6917.878,95.438,540.797,538.69,0.0
50816.0,STARLINK-3342,PAYLOAD,2024-04-09 04:37:41,15.08846075,0.0001524,53.2182,69.281,90.9779,269.1387,9.3178e-05,1.195e-05,0.0,0 STARLINK-3342,1 50816U 22001P   24100.19284377  .00001195  00000-0  93178-4 0  9991,2 50816  53.2182  69.2810 0001524  90.9779 269.1387 15.08846075126089,6917.862,95.437,540.781,538.673,0.0
50816.0,STARLINK-3342,PAYLOAD,2024-04-09 07:48:27,15.08848753,0.0001528,53.2183,68.6865,91.6115,268.5052,6.4834e-05,7.44e-06,0.0,0 STARLINK-3342,1 50816U 22001P   24100.32532272  .00000744  00000-0  64834-4 0  9992,2 50816  53.2183  68.6865 0001528  91.6115 268.5052 15.08848753124826,6917.854,95.437,540.776,538.662,0.0
50816.0,STARLINK-3342,PAYLOAD,2024-04-09 22:06:56,15.08834864,0.0001517,53.2183,66.0093,91.2657,268.8509,8.0345e-05,9.91e-06,0.0,0 STARLINK-3342,1 50816U 22001P   24100.92149181  .00000991  00000-0  80345-4 0  9990,2 50816  53.2183  66.0093 0001517  91.2657 268.8509 15.08834864124914,6917.896,95.438,540.811,538.712,0.0
50816.0,STARLINK-3342,PAYLOAD,2024-04-10 04:28:29,15.08839025,0.0001438,53.2183,64.819,90.3681,269.7476,8.03e-05,9.9e-06,0.0,0 STARLINK-3342,1 50816U 22001P   24101.18644989  .00000990  00000-0  80300-4 0  9995,2 50816  53.2183  64.8190 0001438  90.3681 269.7476 15.08839025126231,6917.883,95.438,540.743,538.754,0.0
50816.0,STARLINK-3342,PAYLOAD,2024-04-10 14:00:48,15.08836565,0.0001438,53.2184,63.0359,90.7893,269.3264,2.6583e-05,1.35e-06,0.0,0 STARLINK-3342,1 50816U 22001P   24101.58389328  .00000135  00000-0  26583-4 0  9996,2 50816  53.2184  63.0359 0001438  90.7893 269.3264 15.08836565125011,6917.891,95.438,540.751,538.761,0.0
50816.0,STARLINK-3342,PAYLOAD,2024-04-10 21:57:44,15.08832344,0.0001556,53.2194,61.5512,97.2458,262.8711,-4.7744e-05,-1.048e-05,0.0,0 STARLINK-3342,1 50816U 22001P   24101.91509974 -.00001048  00000-0 -47744-4 0  9992,2 50816  53.2194  61.5512 0001556  97.2458 262.8711 15.08832344125067,6917.904,95.438,540.845,538.692,0.0
50816.0,STARLINK-3342,PAYLOAD,2024-04-11 04:19:17,15.08834981,0.0001565,53.2195,60.364,100.4981,259.6187,-3.0883e-05,-7.79e-06,0.0,0 STARLINK-3342,1 50816U 22001P   24102.18005838 -.00000779  00000-0 -30883-4 0  9998,2 50816  53.2195  60.3640 0001565 100.4981 259.6187 15.08834981126381,6917.896,95.438,540.843,538.678,0.0
50816.0,STARLINK-3342,PAYLOAD,2024-04-12 04:10:03,15.08839642,0.000163,53.2199,55.9039,105.4915,254.6257,8.7797e-05,1.11e-05,0.0,0 STARLINK-3342,1 50816U 22001P   24103.17365523  .00001110  00000-0  87797-4 0  9992,2 50816  53.2199  55.9039 0001630 105.4915 254.6257 15.08839642126531,6917.881,95.438,540.874,538.619,0.0
50816.0,STARLINK-3342,PAYLOAD,2024-04-12 05:45:26,15.08839663,0.0001625,53.2198,55.6066,105.2718,254.8454,8.6802e-05,1.094e-05,0.0,0 STARLINK-3342,1 50816U 22001P   24103.23989539  .00001094  00000-0  86802-4 0  9995,2 50816  53.2198  55.6066 0001625 105.2718 254.8454 15.08839663125263,6917.881,95.438,540.871,538.622,0.0
50816.0,STARLINK-3342,PAYLOAD,2024-04-13 05:36:14,15.08842204,0.0001426,53.2188,51.1433,92.5348,267.5807,0.00013416,1.848e-05,0.0,0 STARLINK-3342,1 50816U 22001P   24104.23349570  .00001848  00000-0  13416-3 0  9998,2 50816  53.2188  51.1433 0001426  92.5348 267.5807 15.08842204126693,6917.874,95.437,540.725,538.752,0.0
50816.0,STARLINK-3342,PAYLOAD,2024-04-13 21:30:06,15.08830699,0.0001399,53.2195,48.1648,93.0249,267.0904,-4.9498e-05,-1.075e-05,0.0,0 STARLINK-3342,1 50816U 22001P   24104.89591223 -.00001075  00000-0 -49498-4 0  9998,2 50816  53.2195  48.1648 0001399  93.0249 267.0904 15.08830699126799,6917.909,95.438,540.742,538.806,0.0
50816.0,STARLINK-3342,PAYLOAD,2024-04-14 03:51:39,15.08834247,0.0001428,53.2193,46.9768,88.1382,271.9773,-1.3735e-05,-5.06e-06,0.0,0 STARLINK-3342,1 50816U 22001P   24105.16087115 -.00000506  00000-0 -13735-4 0  9992,2 50816  53.2193  46.9768 0001428  88.1382 271.9773 15.08834247125556,6917.898,95.438,540.751,538.775,0.0
50816.0,STARLINK-3342,PAYLOAD,2024-04-15 02:07:01,15.08856008,0.0001958,53.2193,42.8183,57.3657,302.7524,0.00015131,2.122e-05,0.0,0 STARLINK-3342,1 50816U 22001P   24106.08821487  .00002122  00000-0  15131-3 0  9997,2 50816  53.2193  42.8183 0001958  57.3657 302.7524 15.08856008126976,6917.831,95.437,541.051,538.342,0.0
50816.0,STARLINK-3342,PAYLOAD,2024-04-15 05:17:47,15.08868868,0.0001379,53.2188,42.2213,104.6748,255.4397,0.0004591,7.032e-05,0.0,0 STARLINK-3342,1 50816U 22001P   24106.22068851  .00007032  00000-0  45910-3 0  9994,2 50816  53.2188  42.2213 0001379 104.6748 255.4397 15.08868868126993,6917.792,95.436,540.611,538.703,0.0
